[{"OBJECT_NAME":"ONEWEB-0208","OBJECT_ID":"2021-031AK","EPOCH":"2025-11-30T11:49:16.123872","MEAN_MOTION":13.14503353,"ECCENTRICITY":0.00018332,"INCLINATION":87.899,"RA_OF_ASC_NODE":329.2902,"ARG_OF_PERICENTER":81.2915,"MEAN_ANOMALY":278.8423,"EPHEMERIS_TYPE":0,"CLASSIFICATION_TYPE":"U","NORAD_CAT_ID":48243,"ELEMENT_SET_NO":999,"REV_AT_EPOCH":22220,"BSTAR":-0.00044920015,"MEAN_MOTION_DOT":-1.54e-6,"MEAN_MOTION_DDOT":0},{"OBJECT_NAME":"ONEWEB-0200","OBJECT_ID":"2021-031AL","EPOCH":"2025-11-30T12:46:21.569376","MEAN_MOTION":13.14502313,"ECCENTRICITY":0.00017377,"INCLINATION":87.8984,"RA_OF_ASC_NODE":329.2719,"ARG_OF_PERICENTER":85.6472,"MEAN_ANOMALY":274.4857,"EPHEMERIS_TYPE":0,"CLASSIFICATION_TYPE":"U","NORAD_CAT_ID":48244,"ELEMENT_SET_NO":999,"REV_AT_EPOCH":22213,"BSTAR":0.00041030703,"MEAN_MOTION_DOT":1.65e-6,"MEAN_MOTION_DDOT":0},{"OBJECT_NAME":"ONEWEB-0217","OBJECT_ID":"2021-031AM","EPOCH":"2025-11-30T13:09:11.392992","MEAN_MOTION":13.14502161,"ECCENTRICITY":0.00018308,"INCLINATION":87.8994,"RA_OF_ASC_NODE":329.262,"ARG_OF_PERICENTER":78.6171,"MEAN_ANOMALY":281.5164,"EPHEMERIS_TYPE":0,"CLASSIFICATION_TYPE":"U","NORAD_CAT_ID":48245,"ELEMENT_SET_NO":999,"REV_AT_EPOCH":22208,"BSTAR":-0.00030881565,"MEAN_MOTION_DOT":-1.02e-6,"MEAN_MOTION_DDOT":0},{"OBJECT_NAME":"ONEWEB-0211","OBJECT_ID":"2021-045A","EPOCH":"2025-11-30T14:55:55.011072","MEAN_MOTION":13.16136492,"ECCENTRICITY":0.00021653,"INCLINATION":87.8987,"RA_OF_ASC_NODE":298.7412,"ARG_OF_PERICENTER":72.3183,"MEAN_ANOMALY":287.8184,"EPHEMERIS_TYPE":0,"CLASSIFICATION_TYPE":"U","NORAD_CAT_ID":48767,"ELEMENT_SET_NO":999,"REV_AT_EPOCH":21832,"BSTAR":-5.514514e-6,"MEAN_MOTION_DOT":1.1e-7,"MEAN_MOTION_DDOT":0},{"OBJECT_NAME":"ONEWEB-0223","OBJECT_ID":"2021-045B","EPOCH":"2025-11-30T14:34:55.346592","MEAN_MOTION":13.15547866,"ECCENTRICITY":0.00023035,"INCLINATION":87.8985,"RA_OF_ASC_NODE":298.8063,"ARG_OF_PERICENTER":78.0666,"MEAN_ANOMALY":282.0723,"EPHEMERIS_TYPE":0,"CLASSIFICATION_TYPE":"U","NORAD_CAT_ID":48768,"ELEMENT_SET_NO":999,"REV_AT_EPOCH":21829,"BSTAR":0.00029489855,"MEAN_MOTION_DOT":1.24e-6,"MEAN_MOTION_DDOT":0},{"OBJECT_NAME":"ONEWEB-0230","OBJECT_ID":"2021-045C","EPOCH":"2025-11-30T10:14:48.780672","MEAN_MOTION":13.15548058,"ECCENTRICITY":0.00018261,"INCLINATION":87.8975,"RA_OF_ASC_NODE":298.873,"ARG_OF_PERICENTER":87.3653,"MEAN_ANOMALY":272.7686,"EPHEMERIS_TYPE":0,"CLASSIFICATION_TYPE":"U","NORAD_CAT_ID":48769,"ELEMENT_SET_NO":999,"REV_AT_EPOCH":21853,"BSTAR":0.00039155606,"MEAN_MOTION_DOT":1.6e-6,"MEAN_MOTION_DDOT":0},{"OBJECT_NAME":"ONEWEB-0237","OBJECT_ID":"2021-045D","EPOCH":"2025-11-30T08:09:18.887616","MEAN_MOTION":13.15547924,"ECCENTRICITY":0.00021403,"INCLINATION":87.898,"RA_OF_ASC_NODE":298.8901,"ARG_OF_PERICENTER":82.0677,"MEAN_ANOMALY":278.0696,"EPHEMERIS_TYPE":0,"CLASSIFICATION_TYPE":"U","NORAD_CAT_ID":48770,"ELEMENT_SET_NO":999,"REV_AT_EPOCH":21824,"BSTAR":0.00029943188,"MEAN_MOTION_DOT":1.26e-6,"MEAN_MOTION_DDOT":0},{"OBJECT_NAME":"ONEWEB-0235","OBJECT_ID":"2021-045E","EPOCH":"2025-11-30T14:50:53.530368","MEAN_MOTION":13.15548187,"ECCENTRICITY":0.00023375,"INCLINATION":87.8985,"RA_OF_ASC_NODE":298.8052,"ARG_OF_PERICENTER":79.7902,"MEAN_ANOMALY":280.3492,"EPHEMERIS_TYPE":0,"CLASSIFICATION_TYPE":"U","NORAD_CAT_ID":48771,"ELEMENT_SET_NO":999,"REV_AT_EPOCH":21827,"BSTAR":-2.4626862e-5,"MEAN_MOTION_DOT":4.0e-8,"MEAN_MOTION_DDOT":0},{"OBJECT_NAME":"ONEWEB-0242","OBJECT_ID":"2021-045F","EPOCH":"2025-11-30T14:41:46.487040","MEAN_MOTION":13.15548568,"ECCENTRICITY":0.00020176,"INCLINATION":87.8988,"RA_OF_ASC_NODE":298.7993,"ARG_OF_PERICENTER":84.7578,"MEAN_ANOMALY":275.3783,"EPHEMERIS_TYPE":0,"CLASSIFICATION_TYPE":"U","NORAD_CAT_ID":48772,"ELEMENT_SET_NO":999,"REV_AT_EPOCH":21831,"BSTAR":7.0488676e-5,"MEAN_MOTION_DOT":3.9e-7,"MEAN_MOTION_DDOT":0},{"OBJECT_NAME":"ONEWEB-0241","OBJECT_ID":"2021-045G","EPOCH":"2025-11-30T14:23:29.474016","MEAN_MOTION":13.15548299,"ECCENTRICITY":0.00021436,"INCLINATION":87.8978,"RA_OF_ASC_NODE":298.8408,"ARG_OF_PERICENTER":73.0512,"MEAN_ANOMALY":287.0853,"EPHEMERIS_TYPE":0,"CLASSIFICATION_TYPE":"U","NORAD_CAT_ID":48773,"ELEMENT_SET_NO":999,"REV_AT_EPOCH":21822,"BSTAR":0.00033999864,"MEAN_MOTION_DOT":1.41e-6,"MEAN_MOTION_DDOT":0},{"OBJECT_NAME":"ONEWEB-0243","OBJECT_ID":"2021-045H","EPOCH":"2025-11-30T04:12:00.744768","MEAN_MOTION":13.15547438,"ECCENTRICITY":0.00022533,"INCLINATION":87.8984,"RA_OF_ASC_NODE":298.934,"ARG_OF_PERICENTER":84.9303,"MEAN_ANOMALY":275.2084,"EPHEMERIS_TYPE":0,"CLASSIFICATION_TYPE":"U","NORAD_CAT_ID":48774,"ELEMENT_SET_NO":999,"REV_AT_EPOCH":21819,"BSTAR":-0.00046152677,"MEAN_MOTION_DOT":-1.61e-6,"MEAN_MOTION_DDOT":0},{"OBJECT_NAME":"ONEWEB-0222","OBJECT_ID":"2021-045J","EPOCH":"2025-11-30T14:45:11.937600","MEAN_MOTION":13.15549394,"ECCENTRICITY":0.00020153,"INCLINATION":87.8988,"RA_OF_ASC_NODE":298.7991,"ARG_OF_PERICENTER":80.9621,"MEAN_ANOMALY":279.1738,"EPHEMERIS_TYPE":0,"CLASSIFICATION_TYPE":"U","NORAD_CAT_ID":48775,"ELEMENT_SET_NO":999,"REV_AT_EPOCH":21829,"BSTAR":1.0565734e-5,"MEAN_MOTION_DOT":1.7e-7,"MEAN_MOTION_DDOT":0},{"OBJECT_NAME":"ONEWEB-0244","OBJECT_ID":"2021-045K","EPOCH":"2025-11-30T08:04:45.307200","MEAN_MOTION":13.15548452,"ECCENTRICITY":0.00020125,"INCLINATION":87.8995,"RA_OF_ASC_NODE":298.841,"ARG_OF_PERICENTER":82.618,"MEAN_ANOMALY":277.5179,"EPHEMERIS_TYPE":0,"CLASSIFICATION_TYPE":"U","NORAD_CAT_ID":48776,"ELEMENT_SET_NO":999,"REV_AT_EPOCH":21882,"BSTAR":0.000212697,"MEAN_MOTION_DOT":9.3e-7,"MEAN_MOTION_DDOT":0},{"OBJECT_NAME":"ONEWEB-0247","OBJECT_ID":"2021-045L","EPOCH":"2025-11-30T08:00:11.294784","MEAN_MOTION":13.15548084,"ECCENTRICITY":0.00028437,"INCLINATION":87.8976,"RA_OF_ASC_NODE":298.9004,"ARG_OF_PERICENTER":83.9684,"MEAN_ANOMALY":276.177,"EPHEMERIS_TYPE":0,"CLASSIFICATION_TYPE":"U","NORAD_CAT_ID":48777,"ELEMENT_SET_NO":999,"REV_AT_EPOCH":21826,"BSTAR":0.0001680128,"MEAN_MOTION_DOT":7.6e-7,"MEAN_MOTION_DDOT":0},{"OBJECT_NAME":"ONEWEB-0245","OBJECT_ID":"2021-045M","EPOCH":"2025-11-30T04:14:17.783808","MEAN_MOTION":13.15547866,"ECCENTRICITY":0.0001942,"INCLINATION":87.8978,"RA_OF_ASC_NODE":298.8961,"ARG_OF_PERICENTER":75.6201,"MEAN_ANOMALY":284.5145,"EPHEMERIS_TYPE":0,"CLASSIFICATION_TYPE":"U","NORAD_CAT_ID":48778,"ELEMENT_SET_NO":999,"REV_AT_EPOCH":21821,"BSTAR":-0.00034275809,"MEAN_MOTION_DOT":-1.16e-6,"MEAN_MOTION_DDOT":0},{"OBJECT_NAME":"ONEWEB-0229","OBJECT_ID":"2021-045N","EPOCH":"2025-11-30T15:04:34.911840","MEAN_MOTION":13.15547736,"ECCENTRICITY":0.00020062,"INCLINATION":87.8975,"RA_OF_ASC_NODE":298.8046,"ARG_OF_PERICENTER":85.0423,"MEAN_ANOMALY":275.0936,"EPHEMERIS_TYPE":0,"CLASSIFICATION_TYPE":"U","NORAD_CAT_ID":48779,"ELEMENT_SET_NO":999,"REV_AT_EPOCH":21830,"BSTAR":-0.00019182716,"MEAN_MOTION_DOT":-5.9e-7,"MEAN_MOTION_DDOT":0}]
