ONEWEB-0208             
1 48243U 21031AK  25334.49254773 -.00000154  00000+0 -44920-3 0  9999
2 48243  87.8990 329.2902 0001833  81.2915 278.8423 13.14503353222202
ONEWEB-0200             
1 48244U 21031AL  25334.53219409  .00000165  00000+0  41031-3 0  9992
2 48244  87.8984 329.2719 0001737  85.6472 274.4857 13.14502313222131
ONEWEB-0217             
1 48245U 21031AM  25334.54804853 -.00000102  00000+0 -30882-3 0  9992
2 48245  87.8994 329.2620 0001830  78.6171 281.5164 13.14502161222081
ONEWEB-0211             
1 48767U 21045A   25334.62216448  .00000011  00000+0 -55145-5 0  9991
2 48767  87.8987 298.7412 0002165  72.3183 287.8184 13.16136492218322
ONEWEB-0223             
1 48768U 21045B   25334.60758503  .00000124  00000+0  29490-3 0  9999
2 48768  87.8985 298.8063 0002303  78.0666 282.0723 13.15547866218299
ONEWEB-0230             
1 48769U 21045C   25334.42695348  .00000160  00000+0  39156-3 0  9997
2 48769  87.8975 298.8730 0001826  87.3653 272.7686 13.15548058218533
ONEWEB-0237             
1 48770U 21045D   25334.33980194  .00000126  00000+0  29943-3 0  9990
2 48770  87.8980 298.8901 0002140  82.0677 278.0696 13.15547924218248
ONEWEB-0235             
1 48771U 21045E   25334.61867512  .00000004  00000+0 -24627-4 0  9991
2 48771  87.8985 298.8052 0002337  79.7902 280.3492 13.15548187218278
ONEWEB-0242             
1 48772U 21045F   25334.61234360  .00000039  00000+0  70489-4 0  9995
2 48772  87.8988 298.7993 0002017  84.7578 275.3783 13.15548568218310
ONEWEB-0241             
1 48773U 21045G   25334.59964669  .00000141  00000+0  34000-3 0  9997
2 48773  87.8978 298.8408 0002143  73.0512 287.0853 13.15548299218220
ONEWEB-0243             
1 48774U 21045H   25334.17500862 -.00000161  00000+0 -46153-3 0  9999
2 48774  87.8984 298.9340 0002253  84.9303 275.2084 13.15547438218190
ONEWEB-0222             
1 48775U 21045J   25334.61472150  .00000017  00000+0  10566-4 0  9995
2 48775  87.8988 298.7991 0002015  80.9621 279.1738 13.15549394218293
ONEWEB-0244             
1 48776U 21045K   25334.33663550  .00000093  00000+0  21270-3 0  9998
2 48776  87.8995 298.8410 0002012  82.6180 277.5179 13.15548452218829
ONEWEB-0247             
1 48777U 21045L   25334.33346406  .00000076  00000+0  16801-3 0  9992
2 48777  87.8976 298.9004 0002843  83.9684 276.1770 13.15548084218265
ONEWEB-0245             
1 48778U 21045M   25334.17659472 -.00000116  00000+0 -34276-3 0  9998
2 48778  87.8978 298.8961 0001942  75.6201 284.5145 13.15547866218212
ONEWEB-0229             
1 48779U 21045N   25334.62818185 -.00000059  00000+0 -19183-3 0  9993
2 48779  87.8975 298.8046 0002006  85.0423 275.0936 13.15547736218306
